[
    {
        "Altitude(m)": 604234.5898606455,
        "Argument of Periapsis(deg)": 0.0,
        "Eccentricity": 0.0,
        "Inclination(deg)": 60.0,
        "Latitude(deg)": 14.1171253081182,
        "Longitude(deg)": -63.27267961940242,
        "Mean Anomaly(deg)": -196.36359999999996,
        "RAAN(deg)": 225.0,
        "Satellite Name": "Test1 1000",
        "Satellite Number": 1000,
        "Semi-Major Axis(m)": 6980739.136638005,
        "Time(s)": 0
    },
    {
        "Altitude(m)": 604223.4191305741,
        "Argument of Periapsis(deg)": 0.00010418945913296404,
        "Eccentricity": 0.0,
        "Inclination(deg)": 60.0,
        "Latitude(deg)": 13.582261812335485,
        "Longitude(deg)": -62.98577030157929,
        "Mean Anomaly(deg)": -195.7434938545382,
        "RAAN(deg)": 224.99957995086024,
        "Satellite Name": "Test1 1000",
        "Satellite Number": 1000,
        "Semi-Major Axis(m)": 6980739.136638005,
        "Time(s)": 10
    }
]